{
  "type": "FeatureCollection",
  "name": "Paal's London",
  "metadata": {
    "versjon": "1.0",
    "oppdatert": "2026-09-20",
    "kategorier": ["nabolag", "cafe", "bakeri", "restaurant", "bar", "butikk", "marked", "park", "galleri"],
    "linjetyper": ["gate", "gaatur"],
    "soner": ["Central", "North", "South", "East", "West"]
  },
  "features": [
    { "type": "Feature", "geometry": { "type": "Point", "coordinates": [-0.1519, 51.5207] },
      "properties": { "navn": "Marylebone High Street", "kategori": "nabolag", "sone": "Central", "favoritt": true, "besokt": true, "notat": "", "place_id": "ChIJ8fPDaNIadkgRLjwLg3Njj9g" } },
    { "type": "Feature", "geometry": { "type": "Point", "coordinates": [-0.1183, 51.5216] },
      "properties": { "navn": "Lamb's Conduit Street", "kategori": "nabolag", "sone": "Central", "favoritt": true, "besokt": true, "notat": "East Bloomsbury", "place_id": "ChIJjeX5PDYbdkgR-phoN6uICkI" } },
    { "type": "Feature", "geometry": { "type": "Point", "coordinates": [-0.1511, 51.4938] },
      "properties": { "navn": "Elizabeth Street", "kategori": "nabolag", "sone": "Central", "favoritt": true, "besokt": true, "notat": "Lower Belgravia", "place_id": "" } },
    { "type": "Feature", "geometry": { "type": "Point", "coordinates": [-0.1564, 51.4995] },
      "properties": { "navn": "Motcomb Street", "kategori": "nabolag", "sone": "Central", "favoritt": true, "besokt": true, "notat": "Belgravia", "place_id": "ChIJQ1U0ijsFdkgRoPb1VGDhzGY" } },
    { "type": "Feature", "geometry": { "type": "Point", "coordinates": [-0.1508, 51.5097] },
      "properties": { "navn": "Mount Street", "kategori": "nabolag", "sone": "Central", "favoritt": true, "besokt": true, "notat": "Mayfair", "place_id": "ChIJTXRT3i0FdkgR91IToAbIt44" } },
    { "type": "Feature", "geometry": { "type": "Point", "coordinates": [-0.1469, 51.5066] },
      "properties": { "navn": "Shepherd Market", "kategori": "nabolag", "sone": "Central", "favoritt": false, "besokt": false, "notat": "", "place_id": "ChIJpfHK0igFdkgR66lvlSSEvWM" } },
    { "type": "Feature", "geometry": { "type": "Point", "coordinates": [-0.1651, 51.5146] },
      "properties": { "navn": "Connaught Village", "kategori": "nabolag", "sone": "Central", "favoritt": false, "besokt": false, "notat": "Tyburnia", "place_id": "" } },
    { "type": "Feature", "geometry": { "type": "Point", "coordinates": [-0.1093, 51.5258] },
      "properties": { "navn": "Exmouth Market", "kategori": "nabolag", "sone": "Central", "favoritt": false, "besokt": false, "notat": "", "place_id": "ChIJ03enhkUbdkgRCm2WVIqordU" } },
    { "type": "Feature", "geometry": { "type": "Point", "coordinates": [-0.0828, 51.5613] },
      "properties": { "navn": "Stoke Newington Church Street", "kategori": "nabolag", "sone": "North", "favoritt": true, "besokt": true, "notat": "", "place_id": "ChIJdYATLGMcdkgReU8cDcdqaU0" } },
    { "type": "Feature", "geometry": { "type": "Point", "coordinates": [-0.1024, 51.5383] },
      "properties": { "navn": "Upper Street, Islington", "kategori": "nabolag", "sone": "North", "favoritt": true, "besokt": true, "notat": "", "place_id": "" } },
    { "type": "Feature", "geometry": { "type": "Point", "coordinates": [-0.1533, 51.5413] },
      "properties": { "navn": "Primrose Hill", "kategori": "nabolag", "sone": "North", "favoritt": false, "besokt": false, "notat": "", "place_id": "ChIJ6V7jzO4adkgRmRjI9lMi07M" } },
    { "type": "Feature", "geometry": { "type": "Point", "coordinates": [-0.1234, 51.5796] },
      "properties": { "navn": "Crouch End", "kategori": "nabolag", "sone": "North", "favoritt": false, "besokt": false, "notat": "", "place_id": "ChIJiTYKy8AbdkgRM_8p51pSGqQ" } },
    { "type": "Feature", "geometry": { "type": "Point", "coordinates": [-0.1500, 51.5714] },
      "properties": { "navn": "Highgate Village", "kategori": "nabolag", "sone": "North", "favoritt": false, "besokt": false, "notat": "", "place_id": "ChIJF2lcJk8adkgRpjwgNQWd0-Q" } },
    { "type": "Feature", "geometry": { "type": "Point", "coordinates": [-0.1629, 51.5608] },
      "properties": { "navn": "Hampstead Village", "kategori": "nabolag", "sone": "North", "favoritt": false, "besokt": false, "notat": "", "place_id": "ChIJIzJDyggadkgROFAV19Ti070" } },
    { "type": "Feature", "geometry": { "type": "Point", "coordinates": [-0.1040, 51.5347] },
      "properties": { "navn": "Camden Passage", "kategori": "nabolag", "sone": "North", "favoritt": false, "besokt": false, "notat": "Antikk", "place_id": "ChIJS2-WPs4EdkgRT5bUdYdl1Os" } },
    { "type": "Feature", "geometry": { "type": "Point", "coordinates": [-0.0176, 51.5834] },
      "properties": { "navn": "Walthamstow Village", "kategori": "nabolag", "sone": "North", "favoritt": false, "besokt": false, "notat": "", "place_id": "ChIJ0ckah1Gn2EcRB3mcysWWvGM" } },
    { "type": "Feature", "geometry": { "type": "Point", "coordinates": [-0.1427, 51.5914] },
      "properties": { "navn": "Muswell Hill", "kategori": "nabolag", "sone": "North", "favoritt": false, "besokt": false, "notat": "", "place_id": "ChIJ7WhD4iwadkgRTwEDFT2KkvE" } },
    { "type": "Feature", "geometry": { "type": "Point", "coordinates": [-0.0818, 51.5008] },
      "properties": { "navn": "Bermondsey Street", "kategori": "nabolag", "sone": "South", "favoritt": true, "besokt": true, "notat": "White Cube, Fashion and Textile Museum", "place_id": "" } },
    { "type": "Feature", "geometry": { "type": "Point", "coordinates": [-0.1381, 51.4561] },
      "properties": { "navn": "Abbeville Village", "kategori": "nabolag", "sone": "South", "favoritt": true, "besokt": true, "notat": "Clapham", "place_id": "" } },
    { "type": "Feature", "geometry": { "type": "Point", "coordinates": [-0.0800, 51.4617] },
      "properties": { "navn": "East Dulwich", "kategori": "nabolag", "sone": "South", "favoritt": false, "besokt": false, "notat": "", "place_id": "ChIJS2-tbJADdkgR2H2ywPwoxTY" } },
    { "type": "Feature", "geometry": { "type": "Point", "coordinates": [-0.0729, 51.4697] },
      "properties": { "navn": "Bellenden Road", "kategori": "nabolag", "sone": "South", "favoritt": false, "besokt": false, "notat": "Peckham", "place_id": "" } },
    { "type": "Feature", "geometry": { "type": "Point", "coordinates": [-0.1122, 51.4625] },
      "properties": { "navn": "Brixton Village", "kategori": "nabolag", "sone": "South", "favoritt": false, "besokt": false, "notat": "", "place_id": "ChIJx9r5NWUEdkgRJY0mTciVn-k" } },
    { "type": "Feature", "geometry": { "type": "Point", "coordinates": [-0.1656, 51.4572] },
      "properties": { "navn": "Northcote Road", "kategori": "nabolag", "sone": "South", "favoritt": false, "besokt": false, "notat": "", "place_id": "ChIJreaLCpYFdkgRlfk2KgbW-Lg" } },
    { "type": "Feature", "geometry": { "type": "Point", "coordinates": [-0.0855, 51.4506] },
      "properties": { "navn": "Dulwich Village", "kategori": "nabolag", "sone": "South", "favoritt": false, "besokt": false, "notat": "Ønskeliste", "place_id": "ChIJdXaCE_MDdkgRNbsLxUq87W8" } },
    { "type": "Feature", "geometry": { "type": "Point", "coordinates": [-0.0839, 51.4195] },
      "properties": { "navn": "Crystal Palace Triangle", "kategori": "nabolag", "sone": "South", "favoritt": false, "besokt": false, "notat": "Ønskeliste", "place_id": "ChIJ79E0xE8BdkgRh0mDf0w1zco" } },
    { "type": "Feature", "geometry": { "type": "Point", "coordinates": [-0.0967, 51.4545] },
      "properties": { "navn": "Herne Hill", "kategori": "nabolag", "sone": "South", "favoritt": false, "besokt": false, "notat": "Ønskeliste", "place_id": "ChIJ1QO9jYcDdkgRHAlfXDX_ugA" } },
    { "type": "Feature", "geometry": { "type": "Point", "coordinates": [-0.0587, 51.4655] },
      "properties": { "navn": "Nunhead", "kategori": "nabolag", "sone": "South", "favoritt": false, "besokt": false, "notat": "Ønskeliste", "place_id": "ChIJDWdRh6UDdkgRIZme5IYIHaE" } },
    { "type": "Feature", "geometry": { "type": "Point", "coordinates": [-0.0698, 51.5291] },
      "properties": { "navn": "Columbia Road", "kategori": "nabolag", "sone": "East", "favoritt": true, "besokt": true, "notat": "Blomstermarked søndager", "place_id": "ChIJUe_EX7McdkgRUyuFGZPputs" } },
    { "type": "Feature", "geometry": { "type": "Point", "coordinates": [-0.0617, 51.5367] },
      "properties": { "navn": "Broadway Market", "kategori": "nabolag", "sone": "East", "favoritt": true, "besokt": true, "notat": "Marked lørdager", "place_id": "ChIJaZN7MugcdkgRdBDt4u41D4A" } },
    { "type": "Feature", "geometry": { "type": "Point", "coordinates": [-0.0773, 51.5243] },
      "properties": { "navn": "Shoreditch", "kategori": "nabolag", "sone": "East", "favoritt": true, "besokt": true, "notat": "", "place_id": "" } },
    { "type": "Feature", "geometry": { "type": "Point", "coordinates": [-0.0602, 51.5418] },
      "properties": { "navn": "London Fields", "kategori": "nabolag", "sone": "East", "favoritt": true, "besokt": true, "notat": "", "place_id": "ChIJH7vcjOYddkgRQAmHYvUaK-U" } },
    { "type": "Feature", "geometry": { "type": "Point", "coordinates": [-0.0929, 51.5230] },
      "properties": { "navn": "Whitecross Street", "kategori": "nabolag", "sone": "East", "favoritt": false, "besokt": false, "notat": "", "place_id": "ChIJlfVTzakcdkgRDkdY8jAouVk" } },
    { "type": "Feature", "geometry": { "type": "Point", "coordinates": [-0.0438, 51.5383] },
      "properties": { "navn": "Victoria Park Village", "kategori": "nabolag", "sone": "East", "favoritt": false, "besokt": false, "notat": "", "place_id": "ChIJVV7kax4ddkgRQHrksg4N0oY" } },
    { "type": "Feature", "geometry": { "type": "Point", "coordinates": [-0.0257, 51.5446] },
      "properties": { "navn": "Hackney Wick", "kategori": "nabolag", "sone": "East", "favoritt": false, "besokt": false, "notat": "", "place_id": "ChIJxzjMzQwddkgR_xrh8DI6Ao8" } },
    { "type": "Feature", "geometry": { "type": "Point", "coordinates": [-0.2041, 51.5369] },
      "properties": { "navn": "Queen's Park", "kategori": "nabolag", "sone": "West", "favoritt": true, "besokt": true, "notat": "Lonsdale / Salusbury Road", "place_id": "ChIJX2jOw2wQdkgR0P335wB7pI4" } },
    { "type": "Feature", "geometry": { "type": "Point", "coordinates": [-0.2075, 51.5226] },
      "properties": { "navn": "Golborne Road", "kategori": "nabolag", "sone": "West", "favoritt": true, "besokt": true, "notat": "", "place_id": "ChIJGSXeoBkQdkgRU50dAgixBfk" } },
    { "type": "Feature", "geometry": { "type": "Point", "coordinates": [-0.2102, 51.5104] },
      "properties": { "navn": "Clarendon Cross", "kategori": "nabolag", "sone": "West", "favoritt": true, "besokt": true, "notat": "Holland Park", "place_id": "ChIJtaV0x-APdkgRps-xtDCnlUo" } },
    { "type": "Feature", "geometry": { "type": "Point", "coordinates": [-0.1939, 51.5152] },
      "properties": { "navn": "Westbourne Grove", "kategori": "nabolag", "sone": "West", "favoritt": true, "besokt": true, "notat": "", "place_id": "" } },
    { "type": "Feature", "geometry": { "type": "Point", "coordinates": [-0.1660, 51.4907] },
      "properties": { "navn": "Chelsea Green", "kategori": "nabolag", "sone": "West", "favoritt": true, "besokt": true, "notat": "", "place_id": "ChIJASFhcWsFdkgRKfayV46TGxs" } },
    { "type": "Feature", "geometry": { "type": "Point", "coordinates": [-0.2663, 51.4920] },
      "properties": { "navn": "Chiswick High Road / Turnham Green", "kategori": "nabolag", "sone": "West", "favoritt": false, "besokt": true, "notat": "Devonshire Road", "place_id": "ChIJ38-tk2wOdkgRGDMU_F4xZCQ" } },
    { "type": "Feature", "geometry": { "type": "Point", "coordinates": [-0.2492, 51.4738] },
      "properties": { "navn": "Barnes Village", "kategori": "nabolag", "sone": "West", "favoritt": false, "besokt": false, "notat": "Farmers market lørdag", "place_id": "ChIJG6sdYVgOdkgRrgKNBvsQTyo" } },
    { "type": "Feature", "geometry": { "type": "Point", "coordinates": [-0.1838, 51.5233] },
      "properties": { "navn": "Little Venice", "kategori": "nabolag", "sone": "West", "favoritt": false, "besokt": false, "notat": "", "place_id": "ChIJMdwfuqYadkgRm3PVLSkYM5I" } },
    { "type": "Feature", "geometry": { "type": "Point", "coordinates": [-0.2995, 51.4673] },
      "properties": { "navn": "Richmond", "kategori": "nabolag", "sone": "West", "favoritt": false, "besokt": true, "notat": "", "place_id": "ChIJ9aBQEyUMdkgRCZSWDFJ3LAw" } },
    { "type": "Feature", "geometry": { "type": "Point", "coordinates": [-0.2880, 51.4852] },
      "properties": { "navn": "Kew Green", "kategori": "nabolag", "sone": "West", "favoritt": false, "besokt": false, "notat": "Ønskeliste — kombiner med Kew Gardens", "place_id": "ChIJMevjjNkNdkgRtEdyVHdNdko" } },

    { "type": "Feature", "geometry": { "type": "Point", "coordinates": [-0.2412, 51.4856] },
      "properties": { "navn": "WWT London Wetland Centre", "kategori": "park", "sone": "West", "favoritt": false, "besokt": false, "notat": "EKSEMPEL — viser hvordan en park legges inn", "place_id": "" } },
    { "type": "Feature", "geometry": { "type": "Point", "coordinates": [-0.2498, 51.4746] },
      "properties": { "navn": "Hermanos Coffee Roasters", "kategori": "cafe", "sone": "West", "favoritt": false, "besokt": false, "notat": "EKSEMPEL — Barnes. Koordinat er omtrentlig", "place_id": "" } },
    { "type": "Feature", "geometry": { "type": "Point", "coordinates": [-0.0806, 51.4989] },
      "properties": { "navn": "White Cube Bermondsey", "kategori": "galleri", "sone": "South", "favoritt": false, "besokt": true, "notat": "EKSEMPEL — galleri", "place_id": "" } },

    { "type": "Feature",
      "geometry": { "type": "LineString", "coordinates": [[-0.0813, 51.4975], [-0.0818, 51.4998], [-0.0822, 51.5018], [-0.0827, 51.5035]] },
      "properties": { "navn": "Bermondsey Street", "kategori": "gate", "sone": "South", "favoritt": true, "notat": "EKSEMPEL — grov skisse, punktene må finjusteres", "lengde_km": 0.8 } },
    { "type": "Feature",
      "geometry": { "type": "LineString", "coordinates": [[-0.0698, 51.5291], [-0.0672, 51.5310], [-0.0645, 51.5332], [-0.0617, 51.5367], [-0.0602, 51.5418]] },
      "properties": { "navn": "Columbia Road → Broadway Market → London Fields", "kategori": "gaatur", "sone": "East", "favoritt": true, "notat": "EKSEMPEL — søndagsrute. Grov skisse, følg gatenettet i geojson.io for presis trasé", "lengde_km": 2.2, "varighet_min": 45 } }
  ]
}
